from ish_parser import ish_report, ish_reportException
rpt = ish_report().loads("""0191722885931972015010100517+34016-118451FM-15+0053KSMO V0203205N002652200059N0160935N5+01175-01115101645ADDAA101000095GA1005+999999999GD10991+9999999GF100991999999999999999999MA1101635100995REMMET09612/31/14 16:51:03 METAR KSMO 010051Z 32005KT 10SM CLR 12/M11 A3001 RMK AO2 SLP164 T01171111 (DB)""")
print(rpt.formatted())